{
    "links": {
        "self": "http://www.neowsapp.com/rest/v1/neo/3617714?api_key=iIulBulltgU6a56xZRHN4H3l9WmuAYTsLGpBGhQ2"
    },
    "id": "3617714",
    "neo_reference_id": "3617714",
    "name": "(2012 VT76)",
    "designation": "2012 VT76",
    "nasa_jpl_url": "http://ssd.jpl.nasa.gov/sbdb.cgi?sstr=3617714",
    "absolute_magnitude_h": 26.7,
    "estimated_diameter": {
        "kilometers": {
            "estimated_diameter_min": 0.0121494041,
            "estimated_diameter_max": 0.0271668934
        },
        "meters": {
            "estimated_diameter_min": 12.14940408,
            "estimated_diameter_max": 27.1668934089
        },
        "miles": {
            "estimated_diameter_min": 0.0075492874,
            "estimated_diameter_max": 0.0168807197
        },
        "feet": {
            "estimated_diameter_min": 39.8602508817,
            "estimated_diameter_max": 89.1302305717
        }
    },
    "is_potentially_hazardous_asteroid": false,
    "close_approach_data": [
        {
            "close_approach_date": "2012-11-05",
            "close_approach_date_full": "2012-Nov-05 16:10",
            "epoch_date_close_approach": 1352131800000,
            "relative_velocity": {
                "kilometers_per_second": "11.6383554963",
                "kilometers_per_hour": "41898.0797866757",
                "miles_per_hour": "26033.8374096708"
            },
            "miss_distance": {
                "astronomical": "0.0039495845",
                "lunar": "1.5363883705",
                "kilometers": "590849.428585015",
                "miles": "367136.810562607"
            },
            "orbiting_body": "Earth"
        },
        {
            "close_approach_date": "2012-11-05",
            "close_approach_date_full": "2012-Nov-05 22:28",
            "epoch_date_close_approach": 1352154480000,
            "relative_velocity": {
                "kilometers_per_second": "12.405520039",
                "kilometers_per_hour": "44659.8721403262",
                "miles_per_hour": "27749.9077751932"
            },
            "miss_distance": {
                "astronomical": "0.0041188313",
                "lunar": "1.6022253757",
                "kilometers": "616168.389369331",
                "miles": "382869.2832695278"
            },
            "orbiting_body": "Moon"
        }
    ],
    "orbital_data": {
        "orbit_id": "4",
        "orbit_determination_date": "2017-04-06 08:48:00",
        "first_observation_date": "2012-11-13",
        "last_observation_date": "2012-11-14",
        "data_arc_in_days": 1,
        "observations_used": 14,
        "orbit_uncertainty": "9",
        "minimum_orbit_intersection": ".00396006",
        "jupiter_tisserand_invariant": "3.510",
        "epoch_osculation": "2456245.5",
        "eccentricity": ".5737652485338859",
        "semi_major_axis": "2.107823705392867",
        "inclination": "2.215308973582164",
        "ascending_node_longitude": "217.6372175604473",
        "orbital_period": "1117.763319045925",
        "perihelion_distance": ".8984277132025125",
        "perihelion_argument": "144.0012700269471",
        "aphelion_distance": "3.317219697583222",
        "perihelion_time": "2456206.354989309647",
        "mean_anomaly": "12.60750250827303",
        "mean_motion": ".322071760511233",
        "equinox": "J2000",
        "orbit_class": {
            "orbit_class_type": "APO",
            "orbit_class_description": "Near-Earth asteroid orbits which cross the Earth’s orbit similar to that of 1862 Apollo",
            "orbit_class_range": "a (semi-major axis) > 1.0 AU; q (perihelion) < 1.017 AU"
        }
    },
    "is_sentry_object": false
}